*******************************************************************************
Ephemeris / WWW_USER Mon Jul 15 19:08:54 2024 Pasadena, USA      / Horizons    
*******************************************************************************
Target body name: (2017 SN16)                     {source: JPL#20}
Center body name: Earth (399)                     {source: DE441}
Center-site name: Gemini South Obs., Cerro Pachon
*******************************************************************************
Start time      : A.D. 2018-Oct-13 23:00:00.0000 UT      
Stop  time      : A.D. 2018-Oct-14 09:57:00.0000 UT      
Step-size       : 1 minutes
*******************************************************************************
Target pole/equ : undefined
Target radii    : undefined                                                    
Center geodetic : 289.2634, -30.2406227, 2.71233  {E-lon(deg),Lat(deg),Alt(km)}
Center cylindric: 289.2634,5517.21435,-3194.81213 {E-lon(deg),Dxy(km),Dz(km)}
Center pole/equ : ITRF93                          {East-longitude positive}
Center radii    : 6378.137, 6378.137, 6356.752 km {Equator_a, b, pole_c}       
Target primary  : Sun
Vis. interferer : MOON (R_eq= 1737.400) km        {source: DE441}
Rel. light bend : Sun                             {source: DE441}
Rel. lght bnd GM: 1.3271E+11 km^3/s^2                                          
Small-body perts: Yes                             {source: SB441-N16}
Atmos refraction: NO (AIRLESS)
RA format       : HMS
Time format     : CAL 
Calendar mode   : Mixed Julian/Gregorian
RTS-only print  : NO       
EOP file        : eop.240715.p241008                                           
EOP coverage    : DATA-BASED 1962-JAN-20 TO 2024-JUL-15. PREDICTS-> 2024-OCT-07
Units conversion: 1 au= 149597870.700 km, c= 299792.458 km/s, 1 day= 86400.0 s 
Table cut-offs 1: Elevation (-90.0deg=NO ),Airmass (>38.000=NO), Daylight (YES)
Table cut-offs 2: Solar elongation (  0.0,180.0=NO ),Local Hour Angle( 0.0=NO )
Table cut-offs 3: RA/DEC angular rate (     0.0=NO )                           
*******************************************************************************
Initial IAU76/J2000 heliocentric ecliptic osculating elements (au, days, deg.):
  EPOCH=  2458305.5 ! 2018-Jul-06.00 (TDB)         Residual RMS= .23751        
   EC= .1454884975659386   QR= .8682464985612274   TP= 2458145.5722438502      
   OM= 2.759719470837934   W=  137.1017088998531   IN= 13.38264682844635       
  Equivalent ICRF heliocentric cartesian coordinates (au, au/d):
   X= 5.756755401261899E-01  Y=-7.953424559592890E-01  Z=-6.031561894536019E-01
  VX= 1.332076113263395E-02 VY= 5.454663564585547E-03 VZ= 3.896229736425836E-03
Asteroid physical parameters (km, seconds, rotational period in hours):        
   GM= n.a.                RAD= n.a.               ROTPER= n.a.                
   H= 23.34                G= .150                 B-V= n.a.                   
                           ALBEDO= n.a.            STYP= n.a.                  
*******************************************************************************
 Date__(UT)__HR:MN     R.A._________(ICRF)_________DEC
******************************************************
$$SOE
 2018-Oct-14 07:12     21 31 41.191325 +10 18 21.79882
 2018-Oct-14 07:13     21 31 41.032182 +10 18 23.91491
 2018-Oct-14 07:14     21 31 40.873115 +10 18 26.03096
 2018-Oct-14 07:15     21 31 40.714124 +10 18 28.14699
 2018-Oct-14 07:16     21 31 40.555210 +10 18 30.26298
 2018-Oct-14 07:17     21 31 40.396371 +10 18 32.37894
 2018-Oct-14 07:18     21 31 40.237608 +10 18 34.49487
 2018-Oct-14 07:19     21 31 40.078920 +10 18 36.61078
 2018-Oct-14 07:20     21 31 39.920309 +10 18 38.72665
 2018-Oct-14 07:21     21 31 39.761773 +10 18 40.84250
 2018-Oct-14 07:22     21 31 39.603313 +10 18 42.95832
 2018-Oct-14 07:23     21 31 39.444928 +10 18 45.07411
 2018-Oct-14 07:24     21 31 39.286619 +10 18 47.18988
 2018-Oct-14 07:25     21 31 39.128386 +10 18 49.30563
 2018-Oct-14 07:26     21 31 38.970227 +10 18 51.42135
 2018-Oct-14 07:27     21 31 38.812145 +10 18 53.53705
 2018-Oct-14 07:28     21 31 38.654137 +10 18 55.65273
 2018-Oct-14 07:29     21 31 38.496205 +10 18 57.76838
 2018-Oct-14 07:30     21 31 38.338348 +10 18 59.88402
 2018-Oct-14 07:31     21 31 38.180566 +10 19 01.99964
 2018-Oct-14 07:32     21 31 38.022859 +10 19 04.11524
 2018-Oct-14 07:33     21 31 37.865228 +10 19 06.23082
 2018-Oct-14 07:34     21 31 37.707671 +10 19 08.34638
 2018-Oct-14 07:35     21 31 37.550189 +10 19 10.46193
 2018-Oct-14 07:36     21 31 37.392781 +10 19 12.57747
 2018-Oct-14 07:37     21 31 37.235449 +10 19 14.69299
 2018-Oct-14 07:38     21 31 37.078191 +10 19 16.80849
 2018-Oct-14 07:39     21 31 36.921008 +10 19 18.92398
 2018-Oct-14 07:40     21 31 36.763899 +10 19 21.03946
 2018-Oct-14 07:41     21 31 36.606864 +10 19 23.15493
 2018-Oct-14 07:42     21 31 36.449904 +10 19 25.27039
 2018-Oct-14 07:43     21 31 36.293019 +10 19 27.38584
 2018-Oct-14 07:44     21 31 36.136207 +10 19 29.50129
 2018-Oct-14 07:45     21 31 35.979470 +10 19 31.61672
 2018-Oct-14 07:46     21 31 35.822806 +10 19 33.73215
 2018-Oct-14 07:47     21 31 35.666216 +10 19 35.84757
 2018-Oct-14 07:48     21 31 35.509701 +10 19 37.96298
 2018-Oct-14 07:49     21 31 35.353259 +10 19 40.07839
 2018-Oct-14 07:50     21 31 35.196891 +10 19 42.19380
 2018-Oct-14 07:51     21 31 35.040596 +10 19 44.30920
 2018-Oct-14 07:52     21 31 34.884375 +10 19 46.42460
 2018-Oct-14 07:53     21 31 34.728227 +10 19 48.54000
 2018-Oct-14 07:54     21 31 34.572152 +10 19 50.65540
 2018-Oct-14 07:55     21 31 34.416151 +10 19 52.77080
 2018-Oct-14 07:56     21 31 34.260223 +10 19 54.88620
 2018-Oct-14 07:57     21 31 34.104368 +10 19 57.00161
 2018-Oct-14 07:58     21 31 33.948586 +10 19 59.11701
 2018-Oct-14 07:59     21 31 33.792876 +10 20 01.23242
 2018-Oct-14 08:00     21 31 33.637240 +10 20 03.34783
 2018-Oct-14 08:01     21 31 33.481676 +10 20 05.46325
 2018-Oct-14 08:02     21 31 33.326184 +10 20 07.57867
 2018-Oct-14 08:03     21 31 33.170765 +10 20 09.69410
 2018-Oct-14 08:04     21 31 33.015418 +10 20 11.80954
 2018-Oct-14 08:05     21 31 32.860143 +10 20 13.92499
 2018-Oct-14 08:06     21 31 32.704941 +10 20 16.04044
 2018-Oct-14 08:07     21 31 32.549810 +10 20 18.15590
 2018-Oct-14 08:08     21 31 32.394752 +10 20 20.27138
 2018-Oct-14 08:09     21 31 32.239765 +10 20 22.38687
 2018-Oct-14 08:10     21 31 32.084849 +10 20 24.50236
 2018-Oct-14 08:11     21 31 31.930005 +10 20 26.61787
 2018-Oct-14 08:12     21 31 31.775233 +10 20 28.73340
 2018-Oct-14 08:13     21 31 31.620532 +10 20 30.84894
 2018-Oct-14 08:14     21 31 31.465902 +10 20 32.96449
 2018-Oct-14 08:15     21 31 31.311343 +10 20 35.08006
 2018-Oct-14 08:16     21 31 31.156855 +10 20 37.19565
 2018-Oct-14 08:17     21 31 31.002438 +10 20 39.31126
 2018-Oct-14 08:18     21 31 30.848091 +10 20 41.42688
 2018-Oct-14 08:19     21 31 30.693815 +10 20 43.54252
 2018-Oct-14 08:20     21 31 30.539610 +10 20 45.65819
 2018-Oct-14 08:21     21 31 30.385474 +10 20 47.77387
 2018-Oct-14 08:22     21 31 30.231409 +10 20 49.88957
 2018-Oct-14 08:23     21 31 30.077414 +10 20 52.00530
 2018-Oct-14 08:24     21 31 29.923489 +10 20 54.12105
 2018-Oct-14 08:25     21 31 29.769634 +10 20 56.23682
 2018-Oct-14 08:26     21 31 29.615848 +10 20 58.35262
 2018-Oct-14 08:27     21 31 29.462132 +10 21 00.46844
 2018-Oct-14 08:28     21 31 29.308485 +10 21 02.58429
 2018-Oct-14 08:29     21 31 29.154907 +10 21 04.70017
 2018-Oct-14 08:30     21 31 29.001399 +10 21 06.81607
 2018-Oct-14 08:31     21 31 28.847959 +10 21 08.93201
 2018-Oct-14 08:32     21 31 28.694588 +10 21 11.04797
 2018-Oct-14 08:33     21 31 28.541286 +10 21 13.16396
 2018-Oct-14 08:34     21 31 28.388053 +10 21 15.27998
 2018-Oct-14 08:35     21 31 28.234888 +10 21 17.39603
 2018-Oct-14 08:36     21 31 28.081791 +10 21 19.51212
 2018-Oct-14 08:37     21 31 27.928762 +10 21 21.62824
 2018-Oct-14 08:38     21 31 27.775801 +10 21 23.74439
 2018-Oct-14 08:39     21 31 27.622908 +10 21 25.86057
 2018-Oct-14 08:40     21 31 27.470082 +10 21 27.97679
 2018-Oct-14 08:41     21 31 27.317324 +10 21 30.09305
 2018-Oct-14 08:42     21 31 27.164633 +10 21 32.20934
 2018-Oct-14 08:43     21 31 27.012010 +10 21 34.32568
 2018-Oct-14 08:44 A   21 31 26.859453 +10 21 36.44204
 2018-Oct-14 08:45 A   21 31 26.706964 +10 21 38.55845
 2018-Oct-14 08:46 A   21 31 26.554541 +10 21 40.67490
 2018-Oct-14 08:47 A   21 31 26.402184 +10 21 42.79139
 2018-Oct-14 08:48 A   21 31 26.249894 +10 21 44.90791
 2018-Oct-14 08:49 A   21 31 26.097670 +10 21 47.02448
 2018-Oct-14 08:50 A   21 31 25.945513 +10 21 49.14110
 2018-Oct-14 08:51 A   21 31 25.793421 +10 21 51.25775
 2018-Oct-14 08:52 A   21 31 25.641395 +10 21 53.37445
 2018-Oct-14 08:53 A   21 31 25.489434 +10 21 55.49120
 2018-Oct-14 08:54 A   21 31 25.337539 +10 21 57.60799
 2018-Oct-14 08:55 A   21 31 25.185709 +10 21 59.72482
 2018-Oct-14 08:56 A   21 31 25.033944 +10 22 01.84170
 2018-Oct-14 08:57 A   21 31 24.882244 +10 22 03.95863
 2018-Oct-14 08:58 A   21 31 24.730609 +10 22 06.07561
 2018-Oct-14 08:59 A   21 31 24.579038 +10 22 08.19264
 2018-Oct-14 09:00 A   21 31 24.427532 +10 22 10.30972
 2018-Oct-14 09:01 A   21 31 24.276090 +10 22 12.42684
 2018-Oct-14 09:02 A   21 31 24.124711 +10 22 14.54402
 2018-Oct-14 09:03 A   21 31 23.973397 +10 22 16.66125
 2018-Oct-14 09:04 A   21 31 23.822147 +10 22 18.77853
 2018-Oct-14 09:05 A   21 31 23.670959 +10 22 20.89587
 2018-Oct-14 09:06 A   21 31 23.519836 +10 22 23.01326
 2018-Oct-14 09:07 A   21 31 23.368775 +10 22 25.13070
 2018-Oct-14 09:08 A   21 31 23.217777 +10 22 27.24820
 2018-Oct-14 09:09 A   21 31 23.066842 +10 22 29.36575
 2018-Oct-14 09:10 A   21 31 22.915970 +10 22 31.48337
 2018-Oct-14 09:11 A   21 31 22.765159 +10 22 33.60103
 2018-Oct-14 09:12 A   21 31 22.614412 +10 22 35.71876
 2018-Oct-14 09:13 N   21 31 22.463726 +10 22 37.83655
 2018-Oct-14 09:14 N   21 31 22.313102 +10 22 39.95439
